ATLAS CENTAUR 2         
1 00694U 63047A   26066.07295424  .00001683  00000+0  19599-3 0  9995
2 00694  30.3513 210.2666 0547765  57.2248 307.9929 14.12056892131250
THOR AGENA D R/B        
1 00733U 64002A   26066.01031686  .00000259  00000+0  10980-3 0  9996
2 00733  99.1228  79.2018 0031917 266.1544  93.5989 14.34018082237918
SL-3 R/B                
1 00877U 64053B   26066.15983957  .00000383  00000+0  98279-4 0  9999
2 00877  65.0789 338.6538 0079662 293.0267  66.2445 14.61365409266420
SL-8 R/B                
1 02802U 67045B   26066.15295583  .00000530  00000+0  15393-3 0  9993
2 02802  74.0140 352.8261 0064098 359.7082   0.4026 14.45619682 88653
SL-8 R/B                
1 03230U 68040B   26066.11418890  .00004025  00000+0  29843-3 0  9997
2 03230  74.0325 318.9570 0023938 143.7586 216.5230 15.03235748 89625
OAO 2                   
1 03597U 68110A   26065.95458878  .00000332  00000+0  94461-4 0  9998
2 03597  34.9931 280.4950 0005530 183.7493 176.3157 14.47305887 18704
ISIS 1                  
1 03669U 69009A   26066.15324186  .00000183  00000+0  11339-3 0  9999
2 03669  88.4545 155.5853 1707802  94.2782 285.4349 11.30413087348243
SERT 2                  
1 04327U 70009A   26066.11096753  .00000014  00000+0  75803-4 0  9995
2 04327  99.2756   9.3456 0004944 161.8603 209.0868 13.58729505779549
SL-3 R/B                
1 05118U 71028B   26066.15629541  .00048677  00000+0  57772-3 0  9998
2 05118  81.2351  55.1573 0013622 296.5500  63.4356 15.60870570988274
ASTEX 1                 
1 05560U 71089A   26066.20129623  .00000549  00000+0  13942-3 0  9995
2 05560  92.7125 150.9551 0017865  93.2365 267.0885 14.50766245861949
SL-8 R/B                
1 05730U 71119B   26065.38715170  .00014900  00000+0  77432-3 0  9994
2 05730  73.8881 181.8907 0549421 149.2167 214.2474 14.37755132655010
OAO 3 (COPERNICUS)      
1 06153U 72065A   26066.08516010  .00000467  00000+0  10015-3 0  9992
2 06153  35.0062 312.1554 0006199 144.9862   1.3901 14.59995466845811
ATLAS CENTAUR R/B       
1 06155U 72065B   26066.05837031  .00001537  00000+0  21241-3 0  9992
2 06155  35.0024 321.1746 0033846 346.7001  13.2805 14.77677625840870
SL-8 R/B                
1 08459U 75112B   26066.13806679  .00000295  00000+0  10544-3 0  9994
2 08459  74.0623  23.6052 0014501 117.9261 242.3364 14.38201647631501
SL-3 R/B                
1 10114U 77057B   26066.12906600  .00015598  00000+0  32787-3 0  9994
2 10114  97.5769 237.9371 0006225 295.9608  64.0999 15.45402398667937
SEASAT 1                
1 10967U 78064A   26066.07508735  .00000243  00000+0  10647-3 0  9992
2 10967 108.0115 120.0133 0002279 285.9434  74.1460 14.46157299506131
SL-14 R/B               
1 11267U 79011B   26066.16596686  .00000647  00000+0  61279-4 0  9997
2 11267  82.5211  98.9663 0017516  68.3206 291.9877 14.91904459528402
