[{"OBJECT_NAME":"ATLAS CENTAUR 2","OBJECT_ID":"1963-047A","EPOCH":"2026-03-07T01:45:03.246336","MEAN_MOTION":14.12056892,"ECCENTRICITY":0.0547765,"INCLINATION":30.3513,"RA_OF_ASC_NODE":210.2666,"ARG_OF_PERICENTER":57.2248,"MEAN_ANOMALY":307.9929,"EPHEMERIS_TYPE":0,"CLASSIFICATION_TYPE":"U","NORAD_CAT_ID":694,"ELEMENT_SET_NO":999,"REV_AT_EPOCH":13125,"BSTAR":0.00019599,"MEAN_MOTION_DOT":1.683e-5,"MEAN_MOTION_DDOT":0},{"OBJECT_NAME":"THOR AGENA D R/B","OBJECT_ID":"1964-002A","EPOCH":"2026-03-07T00:14:51.376704","MEAN_MOTION":14.34018082,"ECCENTRICITY":0.0031917,"INCLINATION":99.1228,"RA_OF_ASC_NODE":79.2018,"ARG_OF_PERICENTER":266.1544,"MEAN_ANOMALY":93.5989,"EPHEMERIS_TYPE":0,"CLASSIFICATION_TYPE":"U","NORAD_CAT_ID":733,"ELEMENT_SET_NO":999,"REV_AT_EPOCH":23791,"BSTAR":0.0001098,"MEAN_MOTION_DOT":2.59e-6,"MEAN_MOTION_DDOT":0},{"OBJECT_NAME":"SL-3 R/B","OBJECT_ID":"1964-053B","EPOCH":"2026-03-07T03:50:10.138848","MEAN_MOTION":14.61365409,"ECCENTRICITY":0.0079662,"INCLINATION":65.0789,"RA_OF_ASC_NODE":338.6538,"ARG_OF_PERICENTER":293.0267,"MEAN_ANOMALY":66.2445,"EPHEMERIS_TYPE":0,"CLASSIFICATION_TYPE":"U","NORAD_CAT_ID":877,"ELEMENT_SET_NO":999,"REV_AT_EPOCH":26642,"BSTAR":9.8279e-5,"MEAN_MOTION_DOT":3.83e-6,"MEAN_MOTION_DDOT":0},{"OBJECT_NAME":"SL-8 R/B","OBJECT_ID":"1967-045B","EPOCH":"2026-03-07T03:40:15.383712","MEAN_MOTION":14.45619682,"ECCENTRICITY":0.0064098,"INCLINATION":74.014,"RA_OF_ASC_NODE":352.8261,"ARG_OF_PERICENTER":359.7082,"MEAN_ANOMALY":0.4026,"EPHEMERIS_TYPE":0,"CLASSIFICATION_TYPE":"U","NORAD_CAT_ID":2802,"ELEMENT_SET_NO":999,"REV_AT_EPOCH":8865,"BSTAR":0.00015393,"MEAN_MOTION_DOT":5.3e-6,"MEAN_MOTION_DDOT":0},{"OBJECT_NAME":"SL-8 R/B","OBJECT_ID":"1968-040B","EPOCH":"2026-03-07T02:44:25.920960","MEAN_MOTION":15.03235748,"ECCENTRICITY":0.0023938,"INCLINATION":74.0325,"RA_OF_ASC_NODE":318.957,"ARG_OF_PERICENTER":143.7586,"MEAN_ANOMALY":216.523,"EPHEMERIS_TYPE":0,"CLASSIFICATION_TYPE":"U","NORAD_CAT_ID":3230,"ELEMENT_SET_NO":999,"REV_AT_EPOCH":8962,"BSTAR":0.00029843,"MEAN_MOTION_DOT":4.025e-5,"MEAN_MOTION_DDOT":0},{"OBJECT_NAME":"OAO 2","OBJECT_ID":"1968-110A","EPOCH":"2026-03-06T22:54:36.470592","MEAN_MOTION":14.47305887,"ECCENTRICITY":0.000553,"INCLINATION":34.9931,"RA_OF_ASC_NODE":280.495,"ARG_OF_PERICENTER":183.7493,"MEAN_ANOMALY":176.3157,"EPHEMERIS_TYPE":0,"CLASSIFICATION_TYPE":"U","NORAD_CAT_ID":3597,"ELEMENT_SET_NO":999,"REV_AT_EPOCH":1870,"BSTAR":9.4461e-5,"MEAN_MOTION_DOT":3.32e-6,"MEAN_MOTION_DDOT":0},{"OBJECT_NAME":"ISIS 1","OBJECT_ID":"1969-009A","EPOCH":"2026-03-07T03:40:40.096704","MEAN_MOTION":11.30413087,"ECCENTRICITY":0.1707802,"INCLINATION":88.4545,"RA_OF_ASC_NODE":155.5853,"ARG_OF_PERICENTER":94.2782,"MEAN_ANOMALY":285.4349,"EPHEMERIS_TYPE":0,"CLASSIFICATION_TYPE":"U","NORAD_CAT_ID":3669,"ELEMENT_SET_NO":999,"REV_AT_EPOCH":34824,"BSTAR":0.00011339,"MEAN_MOTION_DOT":1.83e-6,"MEAN_MOTION_DDOT":0},{"OBJECT_NAME":"SERT 2","OBJECT_ID":"1970-009A","EPOCH":"2026-03-07T02:39:47.594592","MEAN_MOTION":13.58729505,"ECCENTRICITY":0.0004944,"INCLINATION":99.2756,"RA_OF_ASC_NODE":9.3456,"ARG_OF_PERICENTER":161.8603,"MEAN_ANOMALY":209.0868,"EPHEMERIS_TYPE":0,"CLASSIFICATION_TYPE":"U","NORAD_CAT_ID":4327,"ELEMENT_SET_NO":999,"REV_AT_EPOCH":77954,"BSTAR":7.5803e-5,"MEAN_MOTION_DOT":1.4e-7,"MEAN_MOTION_DDOT":0},{"OBJECT_NAME":"SL-3 R/B","OBJECT_ID":"1971-028B","EPOCH":"2026-03-07T03:45:03.923424","MEAN_MOTION":15.6087057,"ECCENTRICITY":0.0013622,"INCLINATION":81.2351,"RA_OF_ASC_NODE":55.1573,"ARG_OF_PERICENTER":296.55,"MEAN_ANOMALY":63.4356,"EPHEMERIS_TYPE":0,"CLASSIFICATION_TYPE":"U","NORAD_CAT_ID":5118,"ELEMENT_SET_NO":999,"REV_AT_EPOCH":98827,"BSTAR":0.00057772,"MEAN_MOTION_DOT":0.00048677,"MEAN_MOTION_DDOT":0},{"OBJECT_NAME":"ASTEX 1","OBJECT_ID":"1971-089A","EPOCH":"2026-03-07T04:49:51.994272","MEAN_MOTION":14.50766245,"ECCENTRICITY":0.0017865,"INCLINATION":92.7125,"RA_OF_ASC_NODE":150.9551,"ARG_OF_PERICENTER":93.2365,"MEAN_ANOMALY":267.0885,"EPHEMERIS_TYPE":0,"CLASSIFICATION_TYPE":"U","NORAD_CAT_ID":5560,"ELEMENT_SET_NO":999,"REV_AT_EPOCH":86194,"BSTAR":0.00013942,"MEAN_MOTION_DOT":5.49e-6,"MEAN_MOTION_DDOT":0},{"OBJECT_NAME":"SL-8 R/B","OBJECT_ID":"1971-119B","EPOCH":"2026-03-06T09:17:29.906880","MEAN_MOTION":14.37755132,"ECCENTRICITY":0.05494212,"INCLINATION":73.8881,"RA_OF_ASC_NODE":181.8907,"ARG_OF_PERICENTER":149.2167,"MEAN_ANOMALY":214.2474,"EPHEMERIS_TYPE":0,"CLASSIFICATION_TYPE":"U","NORAD_CAT_ID":5730,"ELEMENT_SET_NO":999,"REV_AT_EPOCH":65501,"BSTAR":0.00077431969,"MEAN_MOTION_DOT":0.000149,"MEAN_MOTION_DDOT":0},{"OBJECT_NAME":"OAO 3 (COPERNICUS)","OBJECT_ID":"1972-065A","EPOCH":"2026-03-07T02:02:37.832640","MEAN_MOTION":14.59995466,"ECCENTRICITY":0.0006199,"INCLINATION":35.0062,"RA_OF_ASC_NODE":312.1554,"ARG_OF_PERICENTER":144.9862,"MEAN_ANOMALY":1.3901,"EPHEMERIS_TYPE":0,"CLASSIFICATION_TYPE":"U","NORAD_CAT_ID":6153,"ELEMENT_SET_NO":999,"REV_AT_EPOCH":84581,"BSTAR":0.00010015,"MEAN_MOTION_DOT":4.67e-6,"MEAN_MOTION_DDOT":0},{"OBJECT_NAME":"ATLAS CENTAUR R/B","OBJECT_ID":"1972-065B","EPOCH":"2026-03-07T01:24:03.194784","MEAN_MOTION":14.77677625,"ECCENTRICITY":0.0033846,"INCLINATION":35.0024,"RA_OF_ASC_NODE":321.1746,"ARG_OF_PERICENTER":346.7001,"MEAN_ANOMALY":13.2805,"EPHEMERIS_TYPE":0,"CLASSIFICATION_TYPE":"U","NORAD_CAT_ID":6155,"ELEMENT_SET_NO":999,"REV_AT_EPOCH":84087,"BSTAR":0.00021241,"MEAN_MOTION_DOT":1.537e-5,"MEAN_MOTION_DDOT":0},{"OBJECT_NAME":"SL-8 R/B","OBJECT_ID":"1975-112B","EPOCH":"2026-03-07T03:18:48.970656","MEAN_MOTION":14.38201647,"ECCENTRICITY":0.0014501,"INCLINATION":74.0623,"RA_OF_ASC_NODE":23.6052,"ARG_OF_PERICENTER":117.9261,"MEAN_ANOMALY":242.3364,"EPHEMERIS_TYPE":0,"CLASSIFICATION_TYPE":"U","NORAD_CAT_ID":8459,"ELEMENT_SET_NO":999,"REV_AT_EPOCH":63150,"BSTAR":0.00010544,"MEAN_MOTION_DOT":2.95e-6,"MEAN_MOTION_DDOT":0},{"OBJECT_NAME":"SL-3 R/B","OBJECT_ID":"1977-057B","EPOCH":"2026-03-07T03:05:51.302400","MEAN_MOTION":15.45402398,"ECCENTRICITY":0.0006225,"INCLINATION":97.5769,"RA_OF_ASC_NODE":237.9371,"ARG_OF_PERICENTER":295.9608,"MEAN_ANOMALY":64.0999,"EPHEMERIS_TYPE":0,"CLASSIFICATION_TYPE":"U","NORAD_CAT_ID":10114,"ELEMENT_SET_NO":999,"REV_AT_EPOCH":66793,"BSTAR":0.00032787,"MEAN_MOTION_DOT":0.00015598,"MEAN_MOTION_DDOT":0},{"OBJECT_NAME":"SEASAT 1","OBJECT_ID":"1978-064A","EPOCH":"2026-03-07T01:48:07.547040","MEAN_MOTION":14.46157299,"ECCENTRICITY":0.0002279,"INCLINATION":108.0115,"RA_OF_ASC_NODE":120.0133,"ARG_OF_PERICENTER":285.9434,"MEAN_ANOMALY":74.146,"EPHEMERIS_TYPE":0,"CLASSIFICATION_TYPE":"U","NORAD_CAT_ID":10967,"ELEMENT_SET_NO":999,"REV_AT_EPOCH":50613,"BSTAR":0.00010647,"MEAN_MOTION_DOT":2.43e-6,"MEAN_MOTION_DDOT":0},{"OBJECT_NAME":"SL-14 R/B","OBJECT_ID":"1979-011B","EPOCH":"2026-03-07T03:58:59.536704","MEAN_MOTION":14.91904459,"ECCENTRICITY":0.0017516,"INCLINATION":82.5211,"RA_OF_ASC_NODE":98.9663,"ARG_OF_PERICENTER":68.3206,"MEAN_ANOMALY":291.9877,"EPHEMERIS_TYPE":0,"CLASSIFICATION_TYPE":"U","NORAD_CAT_ID":11267,"ELEMENT_SET_NO":999,"REV_AT_EPOCH":52840,"BSTAR":6.1279e-5,"MEAN_MOTION_DOT":6.47e-6,"MEAN_MOTION_DDOT":0}]
